IRIDIUM 113             
1 42803U 17039A   26197.82221249  .00000053  00000+0  12025-4 0  9993
2 42803  86.3992 309.7930 0002119  92.6804 267.4635 14.34217521475435
NORSAT 2                
1 42828U 17042D   26197.93767456  .00005348  00000+0  23402-3 0  9993
2 42828  97.4056  10.9198 0008136 311.0245  49.0287 15.22446876492267
TECHNOSAT               
1 42829U 17042E   26197.90159693  .00001492  00000+0  10872-3 0  9992
2 42829  97.4320 354.4366 0017267 358.0038   2.1117 15.05116788491179
FLYING LAPTOP           
1 42831U 17042G   26198.17956471  .00001754  00000+0  14024-3 0  9998
2 42831  97.4815 352.5854 0019613  26.2023 334.0190 15.01320038490951
WNISAT 1R               
1 42835U 17042L   26197.87451300  .00000348  00000+0  31031-4 0  9995
2 42835  97.4819 352.9362 0010649  59.4815 300.7460 15.01859954490969
LEMUR-2-GREENBERG       
1 42837U 17042N   26197.94088303  .00009697  00000+0  31424-3 0  9995
2 42837  97.3832  18.4492 0007264 252.1925 107.8525 15.32186958492945
LEMUR-2-FURIAUS         
1 42840U 17042R   26197.49750942  .00010084  00000+0  33733-3 0  9991
2 42840  97.3778  15.8960 0005913 324.3797  35.7049 15.31157870492699
CORVUS BC2              
1 42846U 17042X   26197.42227782  .00001056  00000+0  75471-4 0  9996
2 42846  97.4091 357.6431 0013332  19.0018 341.1704 15.06459280491460
CORVUS BC1              
1 42847U 17042Y   26197.87858163  .00001449  00000+0  10165-3 0  9993
2 42847  97.4122 358.9151 0011468 354.1091   6.0000 15.06624631491562
VRSS-2                  
1 42954U 17060A   26198.18078971 -.00000055  00000+0 -65477-6 0  9991
2 42954  97.6493 234.5552 0017266   7.2412 352.9048 14.81237462472897
MOHAMMED VI-A           
1 43005U 17070A   26198.22055322  .00000000  00000+0  71916-5 0  9992
2 43005  97.9549 270.1364 0001216  98.7771 261.3576 14.77102595468413
FENGYUN 3D              
1 43010U 17072A   26198.24003102  .00000017  00000+0  29964-4 0  9994
2 43010  99.0145 173.2086 0001440  10.7302 349.3903 14.19744937449251
NOAA 20 (JPSS-1)        
1 43013U 17073A   26198.09896388  .00000016  00000+0  28706-4 0  9999
2 43013  98.7772 137.2967 0001465 122.5500 237.5818 14.19516666448712
MAKERSAT 0              
1 43016U 17073D   26197.43085670  .00011478  00000+0  30313-3 0  9993
2 43016  97.4577  80.1901 0105507 167.8681 192.5141 15.33035166470949
RADFXSAT (FOX-1B)       
1 43017U 17073E   26198.10306236  .00004326  00000+0  18980-3 0  9993
2 43017  97.4662  64.7083 0148314 224.8184 134.0992 15.13077780469915
JILIN-1 04              
1 43022U 17074A   26198.18054345  .00008051  00000+0  18366-3 0  9996
2 43022  97.4882 308.6116 0005231  95.2601 264.9244 15.43164691478897
JILIN-1 05              
1 43023U 17074B   26198.19074288  .00004538  00000+0  13904-3 0  9995
2 43023  97.4884 304.7624 0006522 119.1639 241.0257 15.34304076478604
JILIN-1 06              
1 43024U 17074C   26198.16702715  .00003386  00000+0  10531-3 0  9999
2 43024  97.4809 301.7074 0008202 128.2729 231.9252 15.34009606478431
IRIDIUM 116             
1 43072U 17083C   26197.86660964  .00000124  00000+0  37176-4 0  9999
2 43072  86.3985 309.5947 0002490  97.7737 262.3742 14.34218053448428
IRIDIUM 130             
1 43073U 17083D   26197.83490014  .00000139  00000+0  42726-4 0  9997
2 43073  86.3994 309.8863 0002296 100.7272 259.4182 14.34218333448361
LKW-2                   
1 43080U 17084A   26198.18165354  .00004629  00000+0  17883-3 0  9994
2 43080  97.1170 236.5801 0003704 116.6973 243.4646 15.26706340476262
SUPERVIEW-1 03          
1 43099U 18002A   26198.18958571  .00011827  00000+0  28475-3 0  9993
2 43099  97.3128 283.0006 0046811  74.1473 286.4926 15.40259736472981
CARTOSAT-2F             
1 43111U 18004A   26198.17685139  .00002608  00000+0  12723-3 0  9992
2 43111  97.4769 257.5161 0002408 130.5686 229.5759 15.19182130471882
LKW-3                   
1 43146U 18006A   26198.22581640  .00005407  00000+0  15786-3 0  9992
2 43146  97.6643 359.9888 0003143 172.3233 187.8058 15.35773488473324
ASNARO-2                
1 43152U 18007A   26198.22352041  .00004917  00000+0  21580-3 0  9995
2 43152  97.3973 204.6818 0001759  91.0069 269.1368 15.22406295471981
JILIN-1 07              
1 43159U 18008E   26198.14571529  .00004667  00000+0  13887-3 0  9991
2 43159  97.1764 217.2838 0006557 319.6469  40.4288 15.35183212469590
JILIN-1 08              
1 43160U 18008F   26198.16722341  .00003192  00000+0  99281-4 0  9990
2 43160  97.1802 216.5869 0005067 344.8565  15.2525 15.34023039469541
S-NET D                 
1 43186U 18014G   26198.14822275  .00002596  00000+0  13507-3 0  9993
2 43186  97.5329 102.7529 0006205 276.3149  83.7377 15.16927696463303
S-NET B                 
1 43187U 18014H   26198.16026557  .00002487  00000+0  12966-3 0  9992
2 43187  97.5334 102.7523 0006817 270.2516  89.7936 15.16897227463307
S-NET A                 
1 43188U 18014J   26198.14693506  .00002611  00000+0  13580-3 0  9997
2 43188  97.5343 102.9538 0006713 271.2106  88.8358 15.16936089463305
