OBJECT_NAME,OBJECT_ID,EPOCH,MEAN_MOTION,ECCENTRICITY,INCLINATION,RA_OF_ASC_NODE,ARG_OF_PERICENTER,MEAN_ANOMALY,EPHEMERIS_TYPE,CLASSIFICATION_TYPE,NORAD_CAT_ID,ELEMENT_SET_NO,REV_AT_EPOCH,BSTAR,MEAN_MOTION_DOT,MEAN_MOTION_DDOT
IRIDIUM 113,2017-039A,2026-07-16T19:43:59.159136,14.34217521,.0002119,86.3992,309.7930,92.6804,267.4635,0,U,42803,999,47543,.12025E-4,.53E-6,0
NORSAT 2,2017-042D,2026-07-16T22:30:15.081984,15.22446876,.0008136,97.4056,10.9198,311.0245,49.0287,0,U,42828,999,49226,.23402E-3,.5348E-4,0
TECHNOSAT,2017-042E,2026-07-16T21:38:17.974752,15.05116788,.0017267,97.4320,354.4366,358.0038,2.1117,0,U,42829,999,49117,.10872E-3,.1492E-4,0
FLYING LAPTOP,2017-042G,2026-07-17T04:18:34.390944,15.01320038,.0019613,97.4815,352.5854,26.2023,334.0190,0,U,42831,999,49095,.14024E-3,.1754E-4,0
WNISAT 1R,2017-042L,2026-07-16T20:59:17.923200,15.01859954,.0010649,97.4819,352.9362,59.4815,300.7460,0,U,42835,999,49096,.31031E-4,.348E-5,0
LEMUR-2-GREENBERG,2017-042N,2026-07-16T22:34:52.293792,15.32186958,.0007264,97.3832,18.4492,252.1925,107.8525,0,U,42837,999,49294,.31424E-3,.9697E-4,0
LEMUR-2-FURIAUS,2017-042R,2026-07-16T11:56:24.813888,15.31157870,.0005913,97.3778,15.8960,324.3797,35.7049,0,U,42840,999,49269,.33733E-3,.10084E-3,0
CORVUS BC2,2017-042X,2026-07-16T10:08:04.803648,15.06459280,.0013332,97.4091,357.6431,19.0018,341.1704,0,U,42846,999,49146,.75471E-4,.1056E-4,0
CORVUS BC1,2017-042Y,2026-07-16T21:05:09.452832,15.06624631,.0011468,97.4122,358.9151,354.1091,6.0000,0,U,42847,999,49156,.10165E-3,.1449E-4,0
VRSS-2,2017-060A,2026-07-17T04:20:20.230944,14.81237462,.0017266,97.6493,234.5552,7.2412,352.9048,0,U,42954,999,47289,-.65477E-6,-.55E-6,0
MOHAMMED VI-A,2017-070A,2026-07-17T05:17:35.798208,14.77102595,.0001216,97.9549,270.1364,98.7771,261.3576,0,U,43005,999,46841,.71916E-5,0,0
FENGYUN 3D,2017-072A,2026-07-17T05:45:38.680128,14.19744937,.000144,99.0145,173.2086,10.7302,349.3903,0,U,43010,999,44925,.29964E-4,.17E-6,0
NOAA 20 (JPSS-1),2017-073A,2026-07-17T02:22:30.479232,14.19516666,.0001465,98.7772,137.2967,122.5500,237.5818,0,U,43013,999,44871,.28706E-4,.16E-6,0
MAKERSAT 0,2017-073D,2026-07-16T10:20:26.018880,15.33035166,.0105507,97.4577,80.1901,167.8681,192.5141,0,U,43016,999,47094,.30313E-3,.11478E-3,0
RADFXSAT (FOX-1B),2017-073E,2026-07-17T02:28:24.587904,15.13077780,.0148314,97.4662,64.7083,224.8184,134.0992,0,U,43017,999,46991,.1898E-3,.4326E-4,0
JILIN-1 04,2017-074A,2026-07-17T04:19:58.954080,15.43164691,.0005231,97.4882,308.6116,95.2601,264.9244,0,U,43022,999,47889,.18366E-3,.8051E-4,0
JILIN-1 05,2017-074B,2026-07-17T04:34:40.184832,15.34304076,.0006522,97.4884,304.7624,119.1639,241.0257,0,U,43023,999,47860,.13904E-3,.4538E-4,0
JILIN-1 06,2017-074C,2026-07-17T04:00:31.145760,15.34009606,.0008202,97.4809,301.7074,128.2729,231.9252,0,U,43024,999,47843,.10531E-3,.3386E-4,0
IRIDIUM 116,2017-083C,2026-07-16T20:47:55.072896,14.34218053,.000249,86.3985,309.5947,97.7737,262.3742,0,U,43072,999,44842,.37176E-4,.124E-5,0
IRIDIUM 130,2017-083D,2026-07-16T20:02:15.372096,14.34218333,.0002296,86.3994,309.8863,100.7272,259.4182,0,U,43073,999,44836,.42726E-4,.139E-5,0
LKW-2,2017-084A,2026-07-17T04:21:34.865856,15.26706340,.0003704,97.1170,236.5801,116.6973,243.4646,0,U,43080,999,47626,.17883E-3,.4629E-4,0
SUPERVIEW-1 03,2018-002A,2026-07-17T04:33:00.205344,15.40259736,.0046811,97.3128,283.0006,74.1473,286.4926,0,U,43099,999,47298,.28475E-3,.11827E-3,0
CARTOSAT-2F,2018-004A,2026-07-17T04:14:39.960096,15.19182130,.0002408,97.4769,257.5161,130.5686,229.5759,0,U,43111,999,47188,.12723E-3,.2608E-4,0
LKW-3,2018-006A,2026-07-17T05:25:10.536960,15.35773488,.0003143,97.6643,359.9888,172.3233,187.8058,0,U,43146,999,47332,.15786E-3,.5407E-4,0
ASNARO-2,2018-007A,2026-07-17T05:21:52.163424,15.22406295,.0001759,97.3973,204.6818,91.0069,269.1368,0,U,43152,999,47198,.2158E-3,.4917E-4,0
JILIN-1 07,2018-008E,2026-07-17T03:29:49.801056,15.35183212,.0006557,97.1764,217.2838,319.6469,40.4288,0,U,43159,999,46959,.13887E-3,.4667E-4,0
JILIN-1 08,2018-008F,2026-07-17T04:00:48.102624,15.34023039,.0005067,97.1802,216.5869,344.8565,15.2525,0,U,43160,999,46954,.99281E-4,.3192E-4,0
S-NET D,2018-014G,2026-07-17T03:33:26.445600,15.16927696,.0006205,97.5329,102.7529,276.3149,83.7377,0,U,43186,999,46330,.13507E-3,.2596E-4,0
S-NET B,2018-014H,2026-07-17T03:50:46.945248,15.16897227,.0006817,97.5334,102.7523,270.2516,89.7936,0,U,43187,999,46330,.12966E-3,.2487E-4,0
S-NET A,2018-014J,2026-07-17T03:31:35.189184,15.16936089,.0006713,97.5343,102.9538,271.2106,88.8358,0,U,43188,999,46330,.1358E-3,.2611E-4,0
